{"type":"FeatureCollection","features":[{"type":"Feature","properties":{"name":"Sweden"},"geometry":{"type":"MultiPolygon","coordinates":[[[[19.076465,57.835938],[18.99375,57.812109],[18.945117,57.741602],[18.878125,57.729687],[18.813867,57.706201],[18.790918,57.483105],[18.90791,57.39834],[18.843652,57.386475],[18.784863,57.361084],[18.742871,57.323535],[18.699902,57.242725],[18.538477,57.196924],[18.477344,57.163037],[18.387207,57.087646],[18.340234,56.978223],[18.248926,56.931543],[18.146387,56.920508],[18.206543,57.010156],[18.285352,57.083203],[18.20957,57.133301],[18.163965,57.211719],[18.105078,57.271875],[18.151953,57.339062],[18.128906,57.44917],[18.136523,57.556641],[18.204883,57.610889],[18.283203,57.655127],[18.405176,57.756836],[18.537402,57.830566],[18.721875,57.863721],[18.805176,57.833154],[18.841113,57.900195],[18.900586,57.915479],[18.956445,57.9],[19.076465,57.835938]]],[[[16.528516,56.290527],[16.477148,56.240186],[16.431641,56.24375],[16.40127,56.310889],[16.394141,56.483643],[16.412305,56.568994],[16.630371,56.876855],[16.727734,56.902002],[16.864648,57.090674],[16.901563,57.174609],[16.960938,57.250195],[16.995996,57.317773],[17.025391,57.345068],[17.089258,57.332275],[17.117676,57.319824],[17.050391,57.280469],[17.058203,57.229248],[17.053516,57.208008],[16.883691,56.985205],[16.838281,56.840527],[16.778027,56.805225],[16.528516,56.290527]]],[[[11.388281,59.036523],[11.470703,58.909521],[11.543555,58.893018],[11.642773,58.926074],[11.712207,59.018652],[11.751855,59.157568],[11.798145,59.289893],[11.743359,59.431445],[11.684863,59.555762],[11.680762,59.592285],[11.834277,59.697168],[11.88125,59.782471],[11.932129,59.863672],[11.988281,59.891309],[12.071875,59.897607],[12.169238,59.912891],[12.291992,59.967236],[12.402051,60.040039],[12.486133,60.106787],[12.514648,60.238867],[12.51582,60.305225],[12.552832,60.354492],[12.588672,60.450732],[12.553809,60.545654],[12.445312,60.689648],[12.314648,60.892139],[12.294141,61.002686],[12.353711,61.023193],[12.467578,61.041504],[12.683008,61.046826],[12.706055,61.059863],[12.727832,61.108252],[12.776367,61.173975],[12.828223,61.221826],[12.863672,61.290283],[12.880762,61.352295],[12.75752,61.445703],[12.596094,61.541309],[12.486816,61.572998],[12.29209,61.653467],[12.155371,61.720752],[12.233691,61.976855],[12.291992,62.167432],[12.301367,62.21377],[12.303516,62.285596],[12.114551,62.591895],[12.121875,62.66001],[12.139844,62.721338],[12.119629,62.825928],[12.108594,62.919482],[12.141016,62.947852],[12.218164,63.000635],[12.144629,63.08252],[12.138672,63.08916],[11.999902,63.291699],[12.212109,63.492236],[12.175195,63.595947],[12.301953,63.671191],[12.532715,63.843555],[12.6625,63.940479],[12.690039,63.957422],[12.792773,64],[12.987598,64.050488],[13.203516,64.075098],[13.299609,64.074805],[13.670703,64.040625],[13.960547,64.014014],[14.002734,64.040723],[14.063281,64.095508],[14.141211,64.173535],[14.148047,64.260303],[14.119922,64.387744],[14.077637,64.464014],[13.873535,64.513574],[13.650293,64.581543],[13.924805,64.796777],[14.115137,64.946143],[14.352441,65.17085],[14.42627,65.264355],[14.479688,65.301465],[14.549512,65.646387],[14.595801,65.742871],[14.63457,65.793262],[14.635156,65.84502],[14.609961,65.932275],[14.543262,66.129346],[14.917969,66.153711],[15.040039,66.167529],[15.15332,66.191064],[15.374902,66.252051],[15.483789,66.305957],[15.422949,66.489844],[15.557031,66.5521],[15.88418,66.768848],[16.237695,66.976416],[16.403516,67.05498],[16.420703,67.093359],[16.434277,67.155078],[16.360645,67.252002],[16.281543,67.312061],[16.127441,67.42583],[16.193555,67.505176],[16.307129,67.520605],[16.457129,67.551758],[16.574121,67.61958],[16.585547,67.62832],[16.783594,67.89502],[17.170508,68.030127],[17.324609,68.103809],[17.564746,68.048438],[17.916699,67.964893],[18.073242,68.087842],[18.125,68.133447],[18.17666,68.200635],[18.155957,68.316846],[18.14707,68.467773],[18.162598,68.528418],[18.303027,68.55542],[18.378613,68.562402],[18.769824,68.500049],[18.868262,68.501123],[19.052637,68.492725],[19.258984,68.465332],[19.691211,68.392432],[19.87002,68.362256],[19.969824,68.356396],[20.055957,68.390381],[20.240039,68.477539],[19.968848,68.542041],[20.147461,68.607324],[20.240039,68.673145],[20.319434,68.754053],[20.348047,68.84873],[20.337109,68.899658],[20.282324,68.934326],[20.116699,69.020898],[20.491992,69.033301],[20.622168,69.036865],[20.895117,68.979834],[20.907031,68.96748],[20.908984,68.937744],[20.918555,68.906934],[21.183398,68.828809],[21.259766,68.787451],[21.422363,68.724609],[21.46543,68.690674],[21.616016,68.650977],[21.724023,68.608545],[21.850195,68.574121],[21.997461,68.520605],[22.195117,68.477979],[22.362109,68.464062],[22.782422,68.391016],[22.854102,68.367334],[22.975391,68.316455],[23.097852,68.257568],[23.18252,68.136621],[23.318555,68.130322],[23.355469,68.088672],[23.474219,68.017334],[23.638867,67.954395],[23.63291,67.933203],[23.501855,67.875195],[23.487793,67.796582],[23.500195,67.696191],[23.541309,67.614307],[23.537012,67.590381],[23.504492,67.562158],[23.46543,67.517871],[23.451465,67.479199],[23.454883,67.460254],[23.468066,67.449951],[23.537109,67.44917],[23.66084,67.440039],[23.733594,67.4229],[23.774902,67.328613],[23.760938,67.310498],[23.656641,67.267822],[23.626074,67.233936],[23.623047,67.184131],[23.641504,67.129395],[23.677344,67.068115],[23.758984,67.002588],[23.869336,66.934033],[23.941797,66.877832],[23.976074,66.838232],[23.988574,66.810547],[23.938867,66.775732],[23.894141,66.706885],[23.88584,66.628027],[23.865527,66.576611],[23.768359,66.505859],[23.701172,66.480762],[23.682031,66.443408],[23.673828,66.380713],[23.693555,66.304297],[23.700293,66.252637],[23.720996,66.21543],[23.751465,66.191162],[23.907324,66.148242],[23.994629,66.060352],[24.049023,65.989844],[24.155469,65.805273],[23.890527,65.782227],[23.691406,65.828516],[23.59209,65.805322],[23.418359,65.804346],[23.221094,65.786133],[23.15459,65.749902],[23.102344,65.735352],[22.919336,65.786475],[22.746582,65.870947],[22.620313,65.806543],[22.538574,65.794336],[22.465137,65.852637],[22.400977,65.862109],[22.366309,65.842676],[22.335938,65.791162],[22.287598,65.750635],[22.275,65.725],[22.266602,65.621533],[22.254004,65.597559],[22.08623,65.610938],[22.096289,65.583789],[22.132812,65.570117],[22.147559,65.552881],[22.086719,65.530225],[21.920117,65.532373],[21.903125,65.50835],[21.95,65.470361],[21.913477,65.437109],[21.87959,65.424023],[21.680664,65.403369],[21.565527,65.408105],[21.532617,65.386572],[21.523438,65.358594],[21.545215,65.331152],[21.595996,65.316553],[21.612695,65.299121],[21.60918,65.261377],[21.566895,65.254541],[21.446875,65.32085],[21.410352,65.317432],[21.437793,65.282959],[21.506348,65.245361],[21.545996,65.206982],[21.580664,65.160791],[21.573926,65.125781],[21.424902,65.012695],[21.29375,64.94126],[21.195898,64.876904],[21.138184,64.808691],[21.20498,64.774316],[21.279297,64.724707],[21.331543,64.629346],[21.393848,64.544336],[21.519629,64.463086],[21.494336,64.416113],[21.465039,64.37959],[21.255762,64.29917],[21.018457,64.177979],[20.762695,63.867822],[20.677637,63.82627],[20.453711,63.77373],[20.371387,63.7229],[20.204688,63.662451],[19.913672,63.610547],[19.781641,63.538184],[19.72207,63.46333],[19.655762,63.458008],[19.590039,63.487256],[19.502344,63.509033],[19.490918,63.460205],[19.494629,63.424365],[19.354297,63.47749],[19.288086,63.42876],[19.236328,63.347363],[19.034375,63.237744],[18.816699,63.257471],[18.792285,63.238135],[18.850195,63.224121],[18.858984,63.206592],[18.819434,63.197266],[18.75957,63.198242],[18.667188,63.176563],[18.606445,63.178271],[18.577637,63.126416],[18.530664,63.063525],[18.407715,63.0375],[18.344238,63.032129],[18.312891,62.996387],[18.502051,62.988867],[18.486914,62.958594],[18.482617,62.92832],[18.463086,62.89585],[18.248047,62.849072],[18.214941,62.812207],[18.17002,62.789355],[18.074414,62.790674],[18.07793,62.811963],[18.093555,62.836035],[17.951074,62.833887],[17.906641,62.886768],[17.87959,62.873193],[17.895605,62.830518],[17.93291,62.786133],[17.974414,62.721045],[17.940723,62.679883],[17.903027,62.659473],[17.930469,62.640625],[18.006543,62.62627],[18.037305,62.600537],[17.94707,62.578467],[17.834473,62.502734],[17.717773,62.500879],[17.646387,62.450879],[17.570605,62.451025],[17.508984,62.48252],[17.410254,62.508398],[17.378418,62.462793],[17.37334,62.426514],[17.429004,62.334717],[17.535254,62.263672],[17.633691,62.233008],[17.562891,62.212305],[17.510156,62.166309],[17.446582,62.022656],[17.412012,61.966113],[17.374512,61.866309],[17.398242,61.78208],[17.417285,61.740674],[17.46543,61.684473],[17.33457,61.691699],[17.196387,61.724561],[17.215625,61.656348],[17.130762,61.575732],[17.146582,61.504639],[17.164258,61.458301],[17.137988,61.381689],[17.17793,61.357617],[17.199609,61.311963],[17.163867,61.278271],[17.179785,61.249268],[17.185742,61.146533],[17.212891,60.98584],[17.20293,60.951855],[17.278906,60.812158],[17.26123,60.763184],[17.250977,60.700781],[17.359863,60.64082],[17.457031,60.641797],[17.555469,60.642725],[17.593066,60.627686],[17.630762,60.585254],[17.661133,60.535156],[17.742188,60.539307],[17.871582,60.580078],[17.955762,60.589795],[18.011328,60.511426],[18.1625,60.40791],[18.250488,60.361523],[18.4,60.337109],[18.55752,60.253564],[18.535449,60.152881],[18.601172,60.119238],[18.787012,60.079492],[18.852734,60.025879],[18.884277,59.980176],[18.933203,59.942285],[18.99043,59.827783],[18.970508,59.757227],[18.895605,59.732959],[18.71875,59.657373],[18.639941,59.600928],[18.578125,59.565771],[18.402441,59.490381],[18.338086,59.476855],[18.276465,59.437646],[18.216895,59.420508],[18.163574,59.430371],[17.964258,59.359375],[17.979785,59.329053],[18.132617,59.316211],[18.210547,59.331445],[18.270508,59.367139],[18.336035,59.375342],[18.395801,59.368604],[18.45918,59.396729],[18.508887,59.407959],[18.560254,59.394482],[18.617578,59.327051],[18.498633,59.291943],[18.414258,59.290332],[18.373047,59.179736],[18.321973,59.132227],[18.285352,59.109375],[18.098145,59.062305],[17.974609,59.002637],[17.829004,58.95459],[17.76543,58.965039],[17.669629,58.916211],[17.456738,58.858398],[17.347656,58.780518],[17.102832,58.71084],[16.978125,58.65415],[16.639355,58.651172],[16.31582,58.663623],[16.214258,58.63667],[16.318066,58.62832],[16.39082,58.601855],[16.478027,58.612891],[16.683008,58.599658],[16.788477,58.585254],[16.923828,58.492578],[16.824316,58.459619],[16.651953,58.434326],[16.716602,58.302881],[16.769922,58.214258],[16.700098,58.160791],[16.694922,57.917529],[16.596973,57.912891],[16.555371,57.812256],[16.58623,57.760937],[16.583789,57.641748],[16.604199,57.568311],[16.652246,57.500684],[16.630859,57.430176],[16.475977,57.265137],[16.479492,57.187695],[16.507324,57.141699],[16.52793,57.068164],[16.45752,56.926807],[16.407813,56.808691],[16.34873,56.709277],[16.216504,56.58999],[16.150684,56.50083],[15.99668,56.222607],[15.920313,56.167383],[15.82666,56.124951],[15.722266,56.164209],[15.626563,56.185596],[15.509668,56.183008],[15.326563,56.15083],[15.051172,56.172217],[14.782031,56.161914],[14.713965,56.134131],[14.754785,56.033154],[14.655566,56.019922],[14.558594,56.048633],[14.473242,56.014355],[14.401953,55.976758],[14.261914,55.887549],[14.215039,55.832617],[14.20293,55.72915],[14.276465,55.636377],[14.341699,55.527734],[14.17373,55.396631],[14.07998,55.392187],[13.806348,55.428564],[13.321387,55.346387],[12.88584,55.411377],[12.940625,55.481592],[12.93877,55.533203],[12.963379,55.612598],[12.978027,55.693799],[12.973926,55.748145],[12.941992,55.806055],[12.83457,55.881836],[12.592578,56.137598],[12.520996,56.245557],[12.471191,56.290527],[12.507031,56.292969],[12.706348,56.23501],[12.752832,56.242139],[12.80166,56.263916],[12.742188,56.346875],[12.691113,56.384424],[12.656445,56.440576],[12.773145,56.455762],[12.857422,56.452393],[12.919531,56.515576],[12.883691,56.617725],[12.793164,56.64917],[12.717578,56.662842],[12.572656,56.823291],[12.421484,56.906396],[12.151855,57.226953],[12.053223,57.446973],[11.961523,57.426074],[11.916992,57.521924],[11.885059,57.612695],[11.878711,57.679443],[11.734961,57.717676],[11.729102,57.764453],[11.703223,57.973193],[11.549023,58.001221],[11.449316,58.118359],[11.431543,58.33999],[11.32998,58.380322],[11.248242,58.369141],[11.252051,58.424072],[11.271582,58.475635],[11.223828,58.679932],[11.20791,58.866406],[11.169141,58.922705],[11.147168,58.988623],[11.166895,59.045557],[11.195801,59.078271],[11.295313,59.086865],[11.388281,59.036523]]],[[[19.156348,57.922607],[19.138379,57.860254],[19.086523,57.86499],[19.039258,57.911035],[19.134863,57.981348],[19.281152,57.977539],[19.331445,57.962891],[19.156348,57.922607]]],[[[18.416211,59.029102],[18.371875,59.01958],[18.349902,59.022607],[18.377246,59.069043],[18.397559,59.089111],[18.464941,59.107861],[18.485547,59.10459],[18.416211,59.029102]]],[[[18.59541,59.470361],[18.570312,59.437256],[18.545117,59.477832],[18.555176,59.485791],[18.572363,59.52583],[18.620898,59.547803],[18.698438,59.534619],[18.697949,59.524609],[18.623828,59.492188],[18.59541,59.470361]]]]}},{"type":"Feature","properties":{"name":"Poland"},"geometry":{"type":"Polygon","coordinates":[[[23.605273,51.51792],[23.658887,51.448975],[23.679688,51.394922],[23.657617,51.35249],[23.664453,51.310059],[23.712207,51.265137],[23.863477,51.126221],[23.938086,50.992529],[23.985742,50.94043],[24.095801,50.872754],[24.105762,50.844971],[24.061621,50.819531],[24.025977,50.816162],[23.99707,50.809375],[23.978418,50.785596],[24.007324,50.760156],[24.046289,50.722803],[24.094727,50.617041],[24.089941,50.530469],[24.052637,50.508447],[24.00498,50.457031],[23.972656,50.410059],[23.711719,50.377344],[23.649023,50.327051],[23.506152,50.229834],[23.408594,50.173926],[23.264453,50.072852],[23.036328,49.899072],[22.952246,49.826367],[22.890723,49.76626],[22.706152,49.606201],[22.649414,49.539014],[22.660645,49.483691],[22.719922,49.353809],[22.732422,49.295166],[22.721973,49.240967],[22.702344,49.192725],[22.705664,49.171191],[22.760156,49.13623],[22.84707,49.08125],[22.852051,49.062744],[22.839746,49.038916],[22.809766,49.020752],[22.70127,49.039941],[22.57998,49.077197],[22.538672,49.072705],[22.473047,49.081299],[22.202539,49.153223],[22.020117,49.209521],[22.002148,49.246094],[21.967676,49.299072],[21.890137,49.343457],[21.712109,49.381934],[21.639648,49.411963],[21.350488,49.42876],[21.225,49.429443],[21.136133,49.417041],[21.079395,49.418262],[21.001172,49.339844],[20.947266,49.31709],[20.868457,49.314697],[20.799512,49.328662],[20.729004,49.369922],[20.616113,49.391699],[20.53457,49.381201],[20.474512,49.390186],[20.422656,49.392334],[20.404688,49.384082],[20.362988,49.385254],[20.302539,49.365527],[20.236523,49.337646],[20.163672,49.316406],[20.107617,49.270752],[20.057617,49.181299],[19.916113,49.221387],[19.868945,49.204004],[19.802246,49.192334],[19.756641,49.204395],[19.767383,49.235205],[19.787988,49.269971],[19.787012,49.318555],[19.773926,49.372168],[19.730078,49.3896],[19.66416,49.396045],[19.630273,49.406641],[19.62666,49.424365],[19.593066,49.447119],[19.534766,49.504785],[19.479688,49.576367],[19.441602,49.597705],[19.38623,49.563623],[19.302344,49.524854],[19.250195,49.511426],[19.149414,49.4],[18.968359,49.39624],[18.957227,49.448291],[18.938184,49.498291],[18.832227,49.510791],[18.829297,49.540137],[18.806934,49.613721],[18.594629,49.757812],[18.568848,49.81792],[18.577148,49.841113],[18.562402,49.879346],[18.516211,49.902393],[18.348438,49.929834],[18.305273,49.914062],[18.266309,49.930273],[18.205273,49.964746],[18.099219,49.992773],[18.087695,50.007275],[18.049512,50.031934],[18.02832,50.035254],[18.014648,50.020264],[17.983789,49.999072],[17.874805,49.972266],[17.83125,49.983301],[17.791699,50.006592],[17.746582,50.056787],[17.681055,50.100781],[17.627051,50.116406],[17.596289,50.139502],[17.589355,50.157471],[17.709277,50.193555],[17.735449,50.230762],[17.720117,50.298633],[17.702246,50.307178],[17.654688,50.284229],[17.55459,50.264062],[17.462305,50.254785],[17.415234,50.254785],[17.151953,50.37832],[16.980762,50.416113],[16.880078,50.427051],[16.869141,50.414502],[16.914746,50.345215],[16.993359,50.259717],[16.989648,50.236914],[16.895313,50.201953],[16.841797,50.186719],[16.778613,50.157031],[16.725293,50.116064],[16.679102,50.097461],[16.63916,50.102148],[16.59668,50.121924],[16.487598,50.248389],[16.350488,50.345215],[16.33418,50.366895],[16.291309,50.371875],[16.230762,50.394092],[16.210352,50.42373],[16.240723,50.454687],[16.28252,50.483008],[16.356641,50.500488],[16.379102,50.516895],[16.392285,50.54165],[16.419727,50.573633],[16.4125,50.585156],[16.359961,50.621387],[16.282227,50.655615],[16.066406,50.629932],[16.007227,50.611621],[15.973828,50.635449],[15.948535,50.670264],[15.893945,50.676904],[15.819238,50.708691],[15.730566,50.739697],[15.643945,50.748877],[15.463965,50.793848],[15.394629,50.796289],[15.354395,50.811768],[15.312598,50.845752],[15.277051,50.883008],[15.258594,50.958545],[15.125977,50.992871],[14.99375,51.014355],[14.984473,51.003418],[14.989941,50.927246],[14.98291,50.886572],[14.895801,50.861377],[14.809375,50.858984],[14.814258,50.871631],[14.91748,51.00874],[14.963867,51.095117],[15.016602,51.252734],[14.953125,51.377148],[14.935547,51.435352],[14.905957,51.46333],[14.724707,51.523877],[14.710938,51.544922],[14.738672,51.627148],[14.724902,51.661719],[14.681348,51.698193],[14.623926,51.770801],[14.60166,51.832373],[14.674902,51.904834],[14.692969,51.958008],[14.724805,52.030859],[14.748145,52.070801],[14.752539,52.081836],[14.70459,52.110205],[14.692383,52.150049],[14.705371,52.207471],[14.679883,52.25],[14.615625,52.277637],[14.573926,52.31416],[14.55459,52.359668],[14.569727,52.431104],[14.619434,52.528516],[14.514063,52.645605],[14.253711,52.78252],[14.128613,52.878223],[14.138867,52.932861],[14.193652,52.982324],[14.293164,53.026758],[14.368555,53.105566],[14.410938,53.199023],[14.412305,53.216748],[14.414551,53.283496],[14.29873,53.556445],[14.279883,53.624756],[14.266113,53.707129],[14.258887,53.729639],[14.487598,53.671875],[14.583496,53.639355],[14.571582,53.675879],[14.552148,53.707324],[14.564941,53.753516],[14.558398,53.823193],[14.350879,53.85874],[14.213672,53.870752],[14.198242,53.919043],[14.211426,53.950342],[14.249316,53.931934],[14.38418,53.924707],[14.715723,54.018311],[15.288379,54.139893],[15.9,54.253955],[16.042773,54.266357],[16.186328,54.290381],[16.239355,54.333057],[16.292285,54.361621],[16.375586,54.436865],[16.559766,54.553809],[16.885449,54.596387],[17.007031,54.651855],[17.261914,54.729541],[17.842969,54.816699],[18.085645,54.83584],[18.323438,54.838184],[18.535156,54.769434],[18.759277,54.68457],[18.799609,54.63335],[18.67832,54.665283],[18.501563,54.741504],[18.43623,54.744727],[18.587109,54.512891],[18.669629,54.430908],[18.836426,54.36958],[18.97627,54.348926],[19.407129,54.386084],[19.560156,54.434619],[19.604395,54.45918],[19.644238,54.44707],[19.924316,54.433984],[20.208203,54.420752],[20.664746,54.406641],[21.140527,54.391797],[21.63418,54.376465],[22.168457,54.359863],[22.731836,54.350098],[22.766211,54.356787],[22.82373,54.395801],[22.893945,54.390527],[22.976758,54.366357],[23.015527,54.34834],[23.031934,54.327881],[23.042188,54.304199],[23.0875,54.299463],[23.170313,54.281445],[23.282324,54.240332],[23.370117,54.200488],[23.453613,54.143457],[23.481348,54.079004],[23.483008,54.005957],[23.477637,53.958936],[23.484668,53.939795],[23.598926,53.599219],[23.789258,53.270947],[23.85918,53.112109],[23.887109,53.027539],[23.909375,52.904883],[23.916309,52.81875],[23.91543,52.770264],[23.90127,52.703613],[23.844727,52.664209],[23.47959,52.551562],[23.410938,52.516211],[23.30332,52.428369],[23.204102,52.337891],[23.18125,52.306982],[23.175098,52.286621],[23.196973,52.256934],[23.327148,52.208447],[23.458398,52.169531],[23.501172,52.140381],[23.597949,52.103076],[23.633301,52.06958],[23.652441,52.040381],[23.651074,51.972998],[23.607422,51.879785],[23.625684,51.809326],[23.581348,51.762402],[23.544824,51.710254],[23.539648,51.618896],[23.605273,51.51792]]]}},{"type":"Feature","properties":{"name":"Norway"},"geometry":{"type":"MultiPolygon","coordinates":[[[[20.622168,69.036865],[20.491992,69.033301],[20.116699,69.020898],[20.282324,68.934326],[20.337109,68.899658],[20.348047,68.84873],[20.319434,68.754053],[20.240039,68.673145],[20.147461,68.607324],[19.968848,68.542041],[20.240039,68.477539],[20.055957,68.390381],[19.969824,68.356396],[19.87002,68.362256],[19.691211,68.392432],[19.258984,68.465332],[19.052637,68.492725],[18.868262,68.501123],[18.769824,68.500049],[18.378613,68.562402],[18.303027,68.55542],[18.162598,68.528418],[18.14707,68.467773],[18.155957,68.316846],[18.17666,68.200635],[18.125,68.133447],[18.073242,68.087842],[17.916699,67.964893],[17.564746,68.048438],[17.324609,68.103809],[17.170508,68.030127],[16.783594,67.89502],[16.585547,67.62832],[16.574121,67.61958],[16.457129,67.551758],[16.307129,67.520605],[16.193555,67.505176],[16.127441,67.42583],[16.281543,67.312061],[16.360645,67.252002],[16.434277,67.155078],[16.420703,67.093359],[16.403516,67.05498],[16.237695,66.976416],[15.88418,66.768848],[15.557031,66.5521],[15.422949,66.489844],[15.483789,66.305957],[15.374902,66.252051],[15.15332,66.191064],[15.040039,66.167529],[14.917969,66.153711],[14.543262,66.129346],[14.609961,65.932275],[14.635156,65.84502],[14.63457,65.793262],[14.595801,65.742871],[14.549512,65.646387],[14.479688,65.301465],[14.42627,65.264355],[14.352441,65.17085],[14.115137,64.946143],[13.924805,64.796777],[13.650293,64.581543],[13.873535,64.513574],[14.077637,64.464014],[14.119922,64.387744],[14.148047,64.260303],[14.141211,64.173535],[14.063281,64.095508],[14.002734,64.040723],[13.960547,64.014014],[13.670703,64.040625],[13.299609,64.074805],[13.203516,64.075098],[12.987598,64.050488],[12.792773,64],[12.690039,63.957422],[12.6625,63.940479],[12.532715,63.843555],[12.301953,63.671191],[12.175195,63.595947],[12.212109,63.492236],[11.999902,63.291699],[12.138672,63.08916],[12.144629,63.08252],[12.218164,63.000635],[12.141016,62.947852],[12.108594,62.919482],[12.119629,62.825928],[12.139844,62.721338],[12.121875,62.66001],[12.114551,62.591895],[12.303516,62.285596],[12.301367,62.21377],[12.291992,62.167432],[12.233691,61.976855],[12.155371,61.720752],[12.29209,61.653467],[12.486816,61.572998],[12.596094,61.541309],[12.75752,61.445703],[12.880762,61.352295],[12.863672,61.290283],[12.828223,61.221826],[12.776367,61.173975],[12.727832,61.108252],[12.706055,61.059863],[12.683008,61.046826],[12.467578,61.041504],[12.353711,61.023193],[12.294141,61.002686],[12.314648,60.892139],[12.445312,60.689648],[12.553809,60.545654],[12.588672,60.450732],[12.552832,60.354492],[12.51582,60.305225],[12.514648,60.238867],[12.486133,60.106787],[12.402051,60.040039],[12.291992,59.967236],[12.169238,59.912891],[12.071875,59.897607],[11.988281,59.891309],[11.932129,59.863672],[11.88125,59.782471],[11.834277,59.697168],[11.680762,59.592285],[11.684863,59.555762],[11.743359,59.431445],[11.798145,59.289893],[11.751855,59.157568],[11.712207,59.018652],[11.642773,58.926074],[11.543555,58.893018],[11.470703,58.909521],[11.388281,59.036523],[11.386426,59.065723],[11.365918,59.104541],[11.132129,59.143213],[11.09082,59.141797],[10.998926,59.164453],[10.94502,59.17085],[10.834473,59.183936],[10.742578,59.295996],[10.644922,59.389209],[10.631055,59.428174],[10.634375,59.60249],[10.604492,59.680029],[10.595313,59.764551],[10.533887,59.695801],[10.569531,59.587109],[10.49375,59.541504],[10.398145,59.519336],[10.407129,59.455664],[10.446387,59.443604],[10.45459,59.37749],[10.431348,59.279639],[10.243164,59.062061],[10.205176,59.038672],[10.179395,59.009277],[10.083105,59.028809],[9.95957,58.968213],[9.842578,58.958496],[9.800195,59.027051],[9.635156,59.117773],[9.557227,59.112695],[9.627148,59.06792],[9.696094,59.009717],[9.656934,58.971191],[9.618457,58.946045],[9.551074,58.933008],[9.309961,58.856836],[9.395801,58.805664],[9.322949,58.747559],[9.238672,58.739014],[9.19375,58.711865],[9.178125,58.675],[8.928418,58.569971],[8.521387,58.300586],[8.312207,58.224463],[8.166113,58.145313],[8.037402,58.147266],[7.875586,58.07998],[7.465918,58.020947],[7.194141,58.047656],[7.004883,58.024219],[6.903418,58.070508],[6.890234,58.102295],[6.895313,58.120752],[6.912305,58.142871],[6.877051,58.150732],[6.802832,58.154541],[6.771094,58.132227],[6.766797,58.081543],[6.731445,58.068311],[6.590527,58.097314],[6.555078,58.123437],[6.605762,58.176367],[6.69248,58.224023],[6.676758,58.233789],[6.659863,58.262744],[6.617578,58.266406],[6.491504,58.259424],[6.389063,58.267969],[6.054688,58.375146],[5.976562,58.432324],[5.706836,58.523633],[5.585938,58.62041],[5.517285,58.726514],[5.522461,58.822656],[5.555566,58.975195],[5.612207,59.012891],[5.854297,58.959473],[6.099023,58.870264],[6.137305,58.874658],[6.21416,58.944678],[6.363281,59.000928],[6.321094,59.016455],[6.099414,58.951953],[6.016992,58.987695],[5.88916,59.060498],[5.88916,59.097949],[5.94873,59.135449],[5.968555,59.186133],[5.937305,59.233984],[5.951855,59.299072],[6.050684,59.368164],[6.198926,59.438086],[6.305664,59.505566],[6.415332,59.547119],[6.403906,59.560986],[6.278516,59.534521],[6.158594,59.489648],[6.017383,59.414453],[5.845215,59.353467],[5.717969,59.329834],[5.657324,59.310254],[5.564063,59.291211],[5.467578,59.203809],[5.362305,59.166357],[5.173242,59.162549],[5.131641,59.226465],[5.185059,59.453662],[5.242188,59.564307],[5.304883,59.642578],[5.403516,59.655762],[5.472461,59.713086],[5.529688,59.713086],[5.579492,59.686621],[5.772168,59.660938],[5.867285,59.733984],[5.991016,59.744678],[6.216602,59.818359],[6.211914,59.831787],[6.059277,59.815576],[5.966699,59.813184],[5.833984,59.794678],[5.763477,59.80791],[5.730469,59.863086],[5.783594,59.912793],[5.996484,60.031494],[6.069922,60.083496],[6.111816,60.13208],[6.105176,60.165137],[6.140527,60.233496],[6.34873,60.352979],[6.518066,60.407568],[6.573633,60.360596],[6.526367,60.213623],[6.526855,60.15293],[6.660938,60.367236],[6.719922,60.418164],[6.787109,60.454102],[6.949707,60.478223],[6.995703,60.511963],[6.806348,60.500781],[6.346973,60.419092],[6.15332,60.34624],[6.101758,60.290137],[5.967383,60.205566],[5.904395,60.150635],[5.876563,60.07002],[5.800879,60.026221],[5.698828,60.01001],[5.557031,59.907764],[5.494531,59.825586],[5.353418,59.760107],[5.263867,59.709766],[5.234473,59.691797],[5.186035,59.642285],[5.145801,59.638818],[5.110742,59.667822],[5.104883,59.731689],[5.119238,59.833691],[5.187109,59.90708],[5.219531,59.97876],[5.174414,60.045703],[5.205664,60.087939],[5.26543,60.086475],[5.376465,60.067236],[5.494531,60.070312],[5.688574,60.123193],[5.657617,60.154102],[5.573828,60.158496],[5.417383,60.154102],[5.28584,60.205713],[5.183594,60.308398],[5.137109,60.445605],[5.168164,60.484814],[5.546484,60.624561],[5.64834,60.687988],[5.589355,60.694287],[5.447363,60.617334],[5.244043,60.56958],[5.11582,60.635986],[5.049121,60.70752],[5.010742,60.858545],[5.024609,60.936133],[5.008594,61.038184],[5.09541,61.071338],[5.19248,61.053711],[5.288184,61.047168],[5.505273,61.056104],[5.983984,61.117334],[6.292578,61.080957],[6.417969,61.084277],[6.609863,61.137012],[6.777832,61.142432],[6.903418,61.102148],[6.97207,61.055957],[6.980566,60.994141],[7.038672,60.95293],[7.07793,60.966309],[7.04668,61.015283],[7.040137,61.091162],[7.54502,61.177148],[7.604492,61.210547],[7.403906,61.222168],[7.346582,61.300586],[7.452539,61.419238],[7.442578,61.434619],[7.331152,61.372021],[7.27627,61.283936],[7.298047,61.213623],[7.275977,61.180957],[7.173535,61.165967],[6.942578,61.160547],[6.794336,61.190381],[6.657031,61.206592],[6.610254,61.229102],[6.625879,61.279297],[6.599902,61.289648],[6.543066,61.244531],[6.492578,61.15459],[6.383496,61.133887],[6.08252,61.167285],[5.646777,61.147607],[5.45127,61.102344],[5.324609,61.108252],[5.106738,61.187549],[5.02168,61.250586],[4.989941,61.377686],[5.002734,61.433594],[5.172461,61.457129],[5.258301,61.455469],[5.338672,61.485498],[5.267578,61.505029],[5.167578,61.543359],[5.099414,61.620166],[4.99668,61.645215],[4.927832,61.710693],[4.910352,61.80957],[4.930078,61.87832],[4.985059,61.900439],[5.116992,61.8854],[5.465332,61.896924],[5.793262,61.8271],[6.01582,61.7875],[6.466699,61.807422],[6.730762,61.869775],[6.682324,61.887012],[6.395898,61.850977],[6.131152,61.852441],[5.664453,61.9229],[5.473047,61.945605],[5.266895,61.935596],[5.15957,61.956982],[5.096484,62.02666],[5.143164,62.159912],[5.240918,62.188672],[5.293848,62.153906],[5.357715,62.151709],[5.422363,62.207373],[5.484277,62.239111],[5.533301,62.310889],[5.718164,62.378906],[5.796289,62.384668],[5.908301,62.416016],[5.979785,62.407129],[6.025586,62.375684],[6.083496,62.349609],[6.208984,62.352783],[6.580078,62.407275],[6.62002,62.423291],[6.692383,62.468066],[6.457129,62.448096],[6.261719,62.416309],[6.136133,62.407471],[6.118457,62.447168],[6.164746,62.482422],[6.2375,62.519922],[6.272852,62.583838],[6.35293,62.611133],[6.439453,62.609668],[6.618359,62.621289],[6.744629,62.637891],[6.961133,62.626758],[7.283789,62.602295],[7.491797,62.542822],[7.570117,62.548193],[7.653125,62.564014],[7.690723,62.585596],[7.527441,62.610303],[7.518164,62.645508],[7.538379,62.67207],[7.804688,62.720996],[8.095508,62.731836],[8.045508,62.77124],[7.408398,62.711768],[7.24209,62.752344],[7.11084,62.752002],[7.024902,62.728809],[6.77998,62.700732],[6.734961,62.720703],[6.781543,62.789648],[6.928223,62.902734],[6.94043,62.930469],[7.008496,62.957666],[7.389063,63.023291],[7.571875,63.099512],[7.654297,63.10918],[7.736035,63.103857],[7.860352,63.112793],[8.100586,63.090967],[8.211133,62.995508],[8.310547,62.965527],[8.623145,62.84624],[8.60918,62.880566],[8.338574,63.042187],[8.235156,63.082178],[8.158008,63.161523],[8.184473,63.236523],[8.271484,63.286572],[8.580176,63.313379],[8.635547,63.342334],[8.641016,63.39209],[8.59375,63.426123],[8.480176,63.42417],[8.386523,63.445264],[8.360742,63.498877],[8.398145,63.535107],[8.576172,63.601172],[8.673633,63.622607],[8.842383,63.645898],[9.13584,63.593652],[9.158105,63.56626],[9.075879,63.500391],[9.08418,63.463428],[9.156055,63.459326],[9.323633,63.570361],[9.520703,63.585693],[9.602246,63.60957],[9.696875,63.624561],[9.832227,63.52417],[9.891504,63.492041],[9.936035,63.478857],[9.979199,63.395264],[10.020996,63.39082],[10.080566,63.432715],[10.188574,63.454785],[10.340039,63.469336],[10.590918,63.447217],[10.704492,63.463574],[10.760156,63.461279],[10.706738,63.536328],[10.673633,63.558008],[10.725293,63.625],[10.779199,63.651172],[10.952539,63.698193],[11.117871,63.719189],[11.225781,63.763818],[11.370703,63.804834],[11.347949,63.837695],[11.307617,63.875732],[11.213867,63.878125],[11.175586,63.898877],[11.294629,63.948193],[11.457617,64.002979],[11.429199,64.024512],[11.306641,64.048877],[11.213574,64.030518],[11.075195,63.988135],[10.914258,63.921094],[10.966699,63.901562],[11.047266,63.845215],[10.934863,63.770215],[10.33916,63.571045],[10.055078,63.512695],[9.924023,63.521777],[9.892773,63.576221],[9.832324,63.616504],[9.76748,63.699512],[9.657227,63.697314],[9.594629,63.678955],[9.567285,63.706152],[9.614746,63.794824],[9.708008,63.864893],[9.864453,63.917822],[9.939453,63.981738],[10.009961,64.083154],[10.23623,64.179639],[10.565625,64.418311],[10.833984,64.494482],[10.932324,64.577734],[11.09043,64.614551],[11.225391,64.679492],[11.331348,64.685937],[11.523828,64.744385],[11.63291,64.813916],[11.561719,64.818262],[11.39248,64.772998],[11.296777,64.754785],[11.303516,64.829395],[11.349902,64.905908],[11.489355,64.97583],[12.159668,65.178955],[12.226562,65.145361],[12.306543,65.085986],[12.508398,65.099414],[12.738379,65.214404],[12.915527,65.339258],[12.819824,65.31748],[12.715332,65.266357],[12.511719,65.195312],[12.417578,65.184082],[12.363867,65.193311],[12.333984,65.240723],[12.263379,65.256104],[12.199609,65.245459],[12.133887,65.27915],[12.122168,65.362354],[12.20625,65.48623],[12.272852,65.568164],[12.344824,65.630176],[12.627734,65.806152],[12.688867,65.902197],[12.816797,65.952881],[12.983008,65.941602],[13.033105,65.95625],[12.976074,66.019189],[12.794922,66.069092],[12.783789,66.100439],[13.387109,66.182764],[13.674414,66.17998],[13.759668,66.221045],[13.91582,66.247363],[14.03418,66.297559],[13.973145,66.319727],[13.681348,66.273584],[13.498926,66.251904],[13.416406,66.252588],[13.352051,66.236719],[13.118848,66.230664],[13.068164,66.430811],[13.104688,66.539404],[13.191602,66.537158],[13.211426,66.64082],[13.311816,66.701855],[13.450391,66.715527],[13.520215,66.74165],[13.621094,66.794824],[13.787988,66.782471],[13.959473,66.794336],[13.916992,66.819385],[13.704102,66.85166],[13.651563,66.90708],[13.72666,66.938037],[13.808398,66.960791],[13.880176,66.964893],[14.022363,67.073096],[14.108789,67.119238],[14.205566,67.11123],[14.340332,67.158936],[14.472656,67.142676],[14.600684,67.173877],[14.775586,67.194482],[15.415723,67.202441],[15.434766,67.24668],[15.300098,67.256934],[14.824414,67.268311],[14.581543,67.267432],[14.479297,67.255957],[14.441699,67.271387],[14.44834,67.297852],[14.536621,67.339746],[14.578516,67.386035],[14.75498,67.499023],[14.961914,67.574268],[15.120508,67.555029],[15.28916,67.483154],[15.409375,67.47417],[15.465332,67.450928],[15.55293,67.351758],[15.594434,67.348535],[15.575684,67.443848],[15.691504,67.521387],[15.661328,67.542822],[15.487305,67.514795],[15.354004,67.543945],[15.24873,67.602148],[15.218652,67.655371],[15.284082,67.707959],[15.345801,67.734424],[15.303906,67.765283],[15.04082,67.682568],[14.854688,67.66333],[14.781348,67.674902],[14.821094,67.749854],[14.798926,67.809326],[15.048438,67.955762],[15.134277,67.972705],[15.274414,67.960938],[15.400879,67.919629],[15.506641,67.926221],[15.621387,67.948291],[15.605762,67.987891],[15.356934,68.003613],[15.292871,68.036475],[15.316016,68.06875],[15.486816,68.102832],[15.656641,68.164355],[15.85127,68.182178],[16.00791,68.228711],[16.038086,68.218164],[16.064551,68.199902],[16.120801,68.027344],[16.260742,67.886572],[16.312305,67.881445],[16.258594,68.001221],[16.308691,68.035645],[16.372168,68.061816],[16.391992,68.091602],[16.319238,68.101758],[16.259766,68.144531],[16.174805,68.28125],[16.203809,68.316748],[16.387891,68.389551],[16.618848,68.406299],[16.864941,68.355273],[16.951367,68.354687],[17.094043,68.368408],[17.336133,68.410352],[17.478516,68.426318],[17.552832,68.42627],[17.571191,68.447461],[17.502344,68.461084],[17.480176,68.474316],[17.426172,68.481934],[17.202344,68.459277],[16.584863,68.466455],[16.525293,68.490674],[16.514355,68.532568],[16.579883,68.592676],[16.651855,68.625781],[16.884668,68.6854],[17.131152,68.693457],[17.39082,68.799365],[17.490039,68.87876],[17.546289,69.001123],[17.70459,69.100049],[18.101465,69.156299],[18.11748,69.181201],[18.075391,69.232617],[18.078711,69.325244],[18.1875,69.433105],[18.259766,69.470605],[18.293164,69.475098],[18.378711,69.439844],[18.482617,69.364844],[18.645508,69.321875],[18.858984,69.314453],[18.915918,69.335596],[18.75,69.378418],[18.624414,69.434375],[18.614453,69.490576],[18.674023,69.520361],[18.766602,69.517041],[18.882812,69.52334],[18.991113,69.561133],[19.006836,69.587695],[19.011328,69.62373],[19.038379,69.6604],[19.197266,69.747852],[19.687012,69.804736],[19.722461,69.781641],[19.695996,69.612939],[19.639746,69.503809],[19.641504,69.424023],[19.736816,69.503809],[19.864648,69.722119],[19.960547,69.824609],[20.068945,69.883447],[20.146387,69.896729],[20.223047,69.927197],[20.324219,69.945312],[20.355176,69.921924],[20.387207,69.867627],[20.332715,69.676953],[20.338184,69.61665],[20.277148,69.53584],[20.04375,69.355664],[20.054492,69.332666],[20.107227,69.341211],[20.197656,69.370947],[20.486719,69.54209],[20.739453,69.520508],[20.742578,69.534521],[20.661523,69.584717],[20.5625,69.632812],[20.532715,69.692334],[20.545996,69.851074],[20.62207,69.913916],[20.840332,69.907324],[20.971094,69.916016],[21.032129,69.887451],[21.163086,69.889502],[21.253711,70.003223],[21.43291,70.013184],[21.590234,69.938037],[21.77959,69.887451],[21.931738,69.814697],[21.974707,69.83457],[21.892578,70.004248],[21.802734,70.066064],[21.607813,70.098193],[21.400391,70.174463],[21.346289,70.208252],[21.355762,70.233398],[21.53877,70.257666],[21.780273,70.229883],[21.995508,70.293359],[22.054395,70.275977],[22.219434,70.30918],[22.321973,70.264502],[22.384766,70.277734],[22.421191,70.337598],[22.68457,70.374756],[22.85166,70.340479],[22.941211,70.30498],[22.982813,70.236768],[23.046484,70.101855],[23.176953,70.029053],[23.25791,69.993311],[23.353906,69.983398],[23.400195,70.019775],[23.310254,70.063574],[23.286035,70.104834],[23.329102,70.207227],[23.379395,70.247461],[23.66123,70.399756],[23.897168,70.47876],[24.038477,70.485352],[24.285547,70.662402],[24.355566,70.69458],[24.42002,70.702002],[24.403516,70.745312],[24.268164,70.772705],[24.263477,70.826318],[24.441797,70.891553],[24.658008,71.001025],[24.764746,71.008447],[24.831641,70.978027],[25.042188,70.928613],[25.171191,70.872021],[25.264648,70.843506],[25.325391,70.849414],[25.375586,70.891943],[25.435938,70.911865],[25.569824,70.900684],[25.649707,70.87334],[25.711914,70.869727],[25.768164,70.853174],[25.781445,70.816797],[25.665625,70.777148],[25.468262,70.671973],[25.273535,70.552393],[25.209277,70.489404],[25.146387,70.324023],[24.994238,70.218213],[24.982715,70.143994],[25.043848,70.109033],[25.211816,70.136475],[25.418848,70.235498],[25.470508,70.340576],[25.988086,70.625391],[26.230859,70.782617],[26.506934,70.912793],[26.661328,70.939746],[26.733984,70.853564],[26.675488,70.740967],[26.558203,70.669141],[26.644629,70.63623],[26.628125,70.550879],[26.601172,70.503467],[26.583984,70.453809],[26.585059,70.41001],[26.666113,70.42168],[26.989355,70.511377],[27.071289,70.608447],[27.147266,70.681201],[27.183691,70.744043],[27.309375,70.803564],[27.546484,70.804004],[27.555664,70.827393],[27.269043,70.91001],[27.235254,70.947217],[27.331641,70.996729],[27.59707,71.091309],[27.733496,71.080859],[27.815039,71.059375],[28.141699,71.043018],[28.392285,70.975293],[28.382715,70.869434],[28.326855,70.825195],[28.271875,70.797949],[27.950977,70.717578],[27.898047,70.67793],[27.998828,70.664258],[28.215625,70.704346],[28.271777,70.667969],[28.202734,70.576904],[28.191016,70.440186],[28.166016,70.3604],[28.166016,70.287646],[28.192969,70.248584],[28.280078,70.403418],[28.309863,70.443066],[28.437305,70.501367],[28.484766,70.618799],[28.609375,70.759668],[28.749805,70.841504],[28.831543,70.863965],[29.102344,70.860742],[29.218555,70.829932],[29.321094,70.761475],[29.397656,70.734131],[29.639063,70.705029],[29.721973,70.668555],[29.7375,70.646826],[29.796484,70.642529],[29.959375,70.694385],[30.065137,70.702979],[30.237695,70.622168],[30.203027,70.562305],[30.213184,70.543311],[30.42207,70.547168],[30.595898,70.523682],[30.926367,70.401123],[30.960645,70.343848],[30.944141,70.274414],[30.468945,70.197852],[30.262988,70.124707],[29.925879,70.096484],[28.781152,70.14541],[28.804297,70.092529],[29.601367,69.976758],[29.646875,69.943701],[29.621387,69.874072],[29.620996,69.818213],[29.635938,69.780127],[29.694629,69.74458],[29.79209,69.727881],[29.990332,69.73667],[30.088281,69.717578],[30.155176,69.745947],[30.180078,69.841162],[30.237598,69.862207],[30.348828,69.83457],[30.397266,69.732812],[30.42832,69.722266],[30.484375,69.794873],[30.594531,69.789648],[30.714453,69.795703],[30.869727,69.783447],[30.924121,69.651758],[30.922461,69.605811],[30.89668,69.56123],[30.860742,69.538428],[30.788867,69.528516],[30.61543,69.532568],[30.379688,69.584717],[30.227539,69.633789],[30.180176,69.63584],[30.159766,69.629883],[30.196484,69.580566],[30.186719,69.542773],[30.16377,69.501611],[30.131836,69.464258],[30.087305,69.432861],[29.994043,69.39248],[29.832715,69.360449],[29.388281,69.298145],[29.353027,69.270605],[29.209961,69.097021],[29.170898,69.071533],[29.118555,69.049951],[28.96582,69.021973],[28.891895,69.060596],[28.832617,69.118994],[28.846289,69.176904],[29.024902,69.287988],[29.191797,69.366699],[29.238867,69.393945],[29.333398,69.472998],[29.141602,69.671436],[28.800391,69.731494],[28.411719,69.822754],[28.269141,69.871436],[28.047266,69.97168],[27.889941,70.06167],[27.747852,70.064844],[27.591699,70.042236],[27.348047,69.960059],[27.205664,69.918701],[27.127539,69.906494],[27.108691,69.904687],[26.934277,69.928125],[26.740234,69.933057],[26.584277,69.926318],[26.525391,69.915039],[26.308203,69.781934],[26.156152,69.714697],[26.072461,69.691553],[26.011523,69.652637],[25.961523,69.588623],[25.850195,69.366504],[25.767188,69.282666],[25.748633,69.231445],[25.768164,69.076123],[25.74834,68.990137],[25.64668,68.919141],[25.575293,68.887158],[25.480859,68.880615],[25.357129,68.862451],[25.249121,68.821338],[25.172852,68.765283],[25.086914,68.6396],[24.941406,68.593262],[24.802441,68.606494],[24.703223,68.652832],[24.490527,68.688672],[24.332031,68.711523],[24.154102,68.760889],[23.997363,68.798438],[23.854004,68.805908],[23.772559,68.758398],[23.707031,68.713867],[23.4625,68.677637],[23.324023,68.648975],[23.144336,68.642578],[23.07168,68.674365],[22.811035,68.695312],[22.500684,68.720215],[22.410938,68.719873],[22.38291,68.776611],[22.300391,68.855859],[22.079688,68.992773],[21.989453,69.041113],[21.819727,69.154492],[21.621777,69.270703],[21.59375,69.273584],[21.46123,69.27749],[21.266797,69.273682],[21.14375,69.247266],[21.066113,69.214111],[21.052637,69.186572],[21.127832,69.080811],[21.104492,69.054443],[21.065723,69.041748],[20.889258,69.071436],[20.675879,69.069482],[20.622168,69.036865]]],[[[4.958691,61.08457],[4.870117,61.071924],[4.799023,61.082715],[4.824414,61.178223],[4.861621,61.193848],[4.91543,61.199365],[4.973242,61.148242],[4.958691,61.08457]]],[[[5.08584,60.307568],[5.089063,60.18877],[4.996973,60.197754],[4.955566,60.243311],[4.943555,60.272412],[4.950781,60.341162],[4.930078,60.412061],[4.957227,60.447266],[4.990625,60.452051],[5.050195,60.388965],[5.08584,60.307568]]],[[[29.956152,69.796777],[29.766211,69.767529],[29.744238,69.791602],[29.785938,69.829053],[29.83584,69.905566],[29.913965,69.902441],[29.992969,69.873242],[30.055176,69.838379],[29.956152,69.796777]]],[[[11.967969,65.626514],[11.901855,65.595703],[11.77832,65.604541],[11.765137,65.630957],[11.800391,65.683887],[11.875391,65.705908],[11.972363,65.701562],[12.003223,65.679443],[11.967969,65.626514]]],[[[8.470801,63.667139],[8.356152,63.664795],[8.287109,63.687158],[8.45127,63.731836],[8.708887,63.774316],[8.733398,63.801318],[8.764648,63.804639],[8.80918,63.771436],[8.814844,63.725977],[8.786523,63.703467],[8.470801,63.667139]]],[[[8.102734,63.337598],[8.004688,63.336914],[7.888281,63.352344],[7.815332,63.385059],[7.804004,63.413916],[7.938379,63.449805],[8.073535,63.470801],[8.136133,63.431348],[8.140918,63.366406],[8.102734,63.337598]]],[[[23.440527,70.815771],[23.420898,70.784424],[23.387109,70.753906],[23.305176,70.72168],[23.068164,70.594092],[22.928906,70.573535],[22.884766,70.553516],[22.829102,70.541553],[22.656055,70.559033],[22.605371,70.533154],[22.55752,70.515869],[22.432227,70.50918],[22.358691,70.514795],[22.16875,70.562109],[22.055762,70.61333],[21.994531,70.657129],[22.17002,70.656299],[22.232617,70.666895],[22.350293,70.657666],[22.420996,70.702588],[22.570703,70.697168],[22.858105,70.728418],[22.963574,70.710986],[23.204688,70.815479],[23.280176,70.812744],[23.395605,70.842578],[23.440527,70.815771]]],[[[25.586328,71.14209],[25.853516,71.103857],[25.94502,71.104639],[26.077637,71.033154],[26.146875,71.039502],[26.133789,70.995801],[25.999707,70.975098],[25.791309,70.9625],[25.760156,70.953809],[25.582031,70.960791],[25.482031,71.01958],[25.314941,71.034131],[25.315234,71.052979],[25.423438,71.097412],[25.586328,71.14209]]],[[[23.615332,70.549316],[23.633984,70.502539],[23.641016,70.463965],[23.547754,70.408154],[23.332813,70.334961],[23.345117,70.315283],[23.270703,70.296484],[23.15918,70.282617],[23.100293,70.296094],[23.108398,70.358838],[23.090625,70.377637],[23.005957,70.352783],[22.917871,70.384668],[22.917773,70.416748],[22.941016,70.44458],[23.022461,70.486914],[23.158398,70.516064],[23.248047,70.505127],[23.54668,70.61709],[23.578906,70.593652],[23.615332,70.549316]]],[[[24.017578,70.567383],[23.827148,70.52749],[23.716602,70.561865],[23.670117,70.59707],[23.663281,70.675244],[23.68916,70.722803],[23.778418,70.747363],[23.836523,70.729395],[23.852051,70.714355],[23.956445,70.699609],[24.07832,70.650586],[24.017578,70.567383]]],[[[13.872852,68.265332],[13.932324,68.248242],[14.087695,68.253223],[14.118848,68.246826],[14.096777,68.218604],[14.029297,68.187549],[13.887695,68.168506],[13.824023,68.121094],[13.778418,68.10498],[13.656152,68.104785],[13.583984,68.093848],[13.495215,68.05166],[13.424219,68.082764],[13.404395,68.060693],[13.391504,68.02124],[13.352051,68.009668],[13.229395,67.995361],[13.199512,68.087256],[13.255957,68.120605],[13.300195,68.160449],[13.367969,68.166553],[13.428711,68.163232],[13.537988,68.249023],[13.687695,68.273389],[13.784082,68.276123],[13.872852,68.265332]]],[[[12.971777,67.874121],[12.824023,67.82124],[12.87793,67.917773],[12.957715,68.015479],[13.068066,68.071338],[13.122852,68.049414],[13.097754,68.002686],[13.098242,67.956445],[13.074609,67.93457],[12.971777,67.874121]]],[[[15.207129,68.943115],[15.337207,68.842432],[15.396582,68.783594],[15.348438,68.672412],[15.22207,68.616309],[15.027051,68.606348],[14.890234,68.610986],[14.804004,68.637988],[14.793262,68.668262],[14.743457,68.677197],[14.612109,68.63833],[14.520801,68.633057],[14.404688,68.663232],[14.373438,68.711426],[14.49668,68.771875],[14.553711,68.818848],[14.69043,68.814697],[14.724609,68.800098],[14.801855,68.790967],[14.848828,68.847559],[14.837988,68.88667],[14.872363,68.913867],[15.0375,68.894287],[15.037793,69.000537],[15.101855,69.008008],[15.128125,69.003955],[15.175586,68.981543],[15.207129,68.943115]]],[[[19.76748,70.216699],[19.818359,70.20498],[19.868652,70.212256],[19.910449,70.201904],[19.994141,70.149268],[20.084277,70.128564],[20.088477,70.102051],[20.005957,70.076221],[19.897266,70.068457],[19.780859,70.077441],[19.74668,70.110498],[19.71084,70.165332],[19.613477,70.219092],[19.599023,70.266162],[19.683789,70.273584],[19.76748,70.216699]]],[[[20.779199,70.089746],[20.725293,70.066504],[20.642578,70.057031],[20.598047,70.071436],[20.534668,70.080908],[20.464258,70.076562],[20.405078,70.119141],[20.411719,70.154883],[20.492773,70.20332],[20.654883,70.230859],[20.786035,70.219531],[20.819434,70.205469],[20.779199,70.089746]]],[[[19.255078,70.066406],[19.34375,70.011963],[19.422266,70.017188],[19.445898,70.037744],[19.499512,70.0479],[19.607813,70.019141],[19.592285,69.970166],[19.442383,69.908398],[19.334766,69.820264],[19.19707,69.799805],[19.130859,69.810449],[19.007812,69.75957],[18.90918,69.706689],[18.806934,69.639844],[18.800684,69.605371],[18.784766,69.579004],[18.410254,69.552832],[18.274121,69.535498],[18.129883,69.557861],[18.061523,69.6021],[18.083496,69.626123],[18.227441,69.635742],[18.232031,69.676758],[18.268457,69.701807],[18.315039,69.715479],[18.349316,69.767871],[18.40625,69.781543],[18.512402,69.768652],[18.583984,69.806592],[18.624316,69.813037],[18.674023,69.781641],[18.697949,69.824854],[18.674023,69.864307],[18.686523,69.890918],[18.823828,69.960107],[18.883203,70.010547],[18.968652,70.043018],[19.050977,70.037842],[19.074902,70.085693],[19.050977,70.134668],[19.060059,70.166602],[19.132715,70.244141],[19.212695,70.247461],[19.249414,70.178564],[19.255078,70.066406]]],[[[12.50957,65.901953],[12.429492,65.899072],[12.430176,65.939941],[12.476074,65.9771],[12.548828,66.001904],[12.642383,66.008545],[12.74707,66.011377],[12.778809,65.991699],[12.718652,65.963867],[12.50957,65.901953]]],[[[12.419922,66.043262],[12.327344,66.036621],[12.342773,66.080762],[12.417676,66.122656],[12.446387,66.151318],[12.461328,66.18501],[12.527441,66.210547],[12.620801,66.17793],[12.622656,66.122461],[12.576367,66.071924],[12.419922,66.043262]]],[[[11.231445,64.865869],[11.179004,64.838037],[11.0625,64.8604],[10.83252,64.843115],[10.739844,64.870312],[10.813477,64.923242],[11.020996,64.978711],[11.132617,64.976172],[11.246191,64.90791],[11.231445,64.865869]]],[[[17.503027,69.59624],[17.623242,69.539062],[17.677344,69.556543],[17.783691,69.563037],[17.862793,69.542969],[17.927441,69.506641],[18.004102,69.50498],[18.052246,69.45752],[18.076758,69.395752],[18.021094,69.349609],[17.94209,69.328711],[17.920703,69.274316],[17.950684,69.198145],[17.773535,69.172021],[17.568164,69.1604],[17.487891,69.196826],[17.323633,69.130029],[17.160938,69.025928],[17.08252,69.013672],[17.077051,69.046631],[16.960156,69.069385],[16.810449,69.070703],[16.81543,69.095117],[16.842578,69.112354],[16.971777,69.137891],[16.997559,69.190625],[16.974121,69.284717],[16.996875,69.330371],[17.001758,69.361914],[17.083008,69.398828],[17.36084,69.381494],[17.394531,69.416699],[17.373438,69.438867],[17.229883,69.477686],[17.251953,69.503809],[17.355566,69.527148],[17.453613,69.530176],[17.483105,69.569678],[17.488184,69.586865],[17.503027,69.59624]]],[[[15.760352,68.56123],[15.772363,68.554199],[15.908594,68.650488],[16.05957,68.680518],[16.068945,68.714014],[16.127441,68.746436],[16.120801,68.799365],[16.150586,68.842383],[16.227539,68.85376],[16.275586,68.868311],[16.328906,68.876318],[16.425195,68.841553],[16.479688,68.80293],[16.547363,68.716553],[16.519238,68.633008],[16.337988,68.567871],[16.193945,68.538477],[16.048438,68.463672],[15.975293,68.40249],[15.9125,68.389258],[15.872754,68.394238],[15.837402,68.409033],[15.763672,68.409082],[15.68252,68.356006],[15.4375,68.312842],[15.341406,68.325293],[15.337012,68.378223],[15.279688,68.373828],[15.187891,68.3104],[15.098047,68.289209],[15.037695,68.282715],[14.926855,68.306592],[14.628906,68.198486],[14.349512,68.178271],[14.25752,68.190771],[14.257227,68.256934],[14.437793,68.341553],[14.58584,68.400342],[15.095313,68.441406],[15.412598,68.61582],[15.489258,68.805322],[15.564258,68.87373],[15.529004,68.912402],[15.443652,68.919189],[15.438477,68.978564],[15.483008,69.043457],[15.649512,69.132568],[15.741992,69.170508],[15.892676,69.277881],[15.965332,69.302051],[16.048047,69.302051],[16.129492,69.273926],[16.114844,69.216406],[15.992676,69.112646],[15.811719,69.024219],[15.833789,68.960742],[15.905859,68.908496],[15.923535,68.819189],[15.92793,68.733203],[15.790723,68.617041],[15.760352,68.56123]]],[[[-8.953564,70.83916],[-9.045801,70.832666],[-9.098877,70.854883],[-8.964648,70.915918],[-8.520801,71.030664],[-8.343701,71.140137],[-8.001367,71.177686],[-7.978809,71.116895],[-8.0021,71.04126],[-8.302344,70.981152],[-8.635352,70.94043],[-8.953564,70.83916]]],[[[19.219336,74.391016],[19.098535,74.352148],[18.917578,74.410645],[18.797461,74.485693],[18.86123,74.51416],[19.18291,74.51792],[19.261523,74.478955],[19.274707,74.456738],[19.219336,74.391016]]],[[[26.875977,78.648926],[26.729492,78.646484],[26.45957,78.720264],[26.407715,78.784326],[26.455762,78.810498],[26.585938,78.811475],[26.78877,78.723975],[27.007617,78.69751],[26.875977,78.648926]]],[[[32.525977,80.119141],[31.577637,80.081445],[31.481934,80.10791],[33.019141,80.217969],[33.098633,80.228711],[33.383984,80.242334],[33.629297,80.217432],[33.556641,80.198145],[32.525977,80.119141]]],[[[21.608105,78.595703],[21.745605,78.572021],[22.043164,78.576953],[22.207324,78.407666],[22.299512,78.228174],[22.449316,78.215234],[22.73457,78.239941],[22.988867,78.251953],[23.119238,78.238623],[23.35166,78.186279],[23.451953,78.149463],[23.364648,78.120508],[23.151953,78.088086],[23.116699,77.991504],[23.330566,77.957861],[23.683984,77.875439],[23.883008,77.864746],[24.238281,77.898535],[24.571484,77.834424],[24.901855,77.756592],[24.129785,77.658252],[24.061914,77.630615],[23.95498,77.557715],[23.841211,77.497754],[23.736133,77.462354],[23.505176,77.401416],[23.380859,77.380322],[23.101367,77.385059],[22.99668,77.360791],[22.899512,77.311377],[22.801758,77.275781],[22.553711,77.26665],[22.426953,77.315918],[22.468848,77.331104],[22.486621,77.360107],[22.44248,77.429346],[22.678906,77.500146],[22.732617,77.539355],[22.685352,77.553516],[22.620313,77.549609],[22.448242,77.571143],[22.397266,77.570117],[22.25459,77.528857],[22.056836,77.501172],[21.856152,77.494141],[21.049902,77.440967],[20.928125,77.459668],[20.873145,77.565332],[21.201074,77.619482],[21.251465,77.710938],[21.33418,77.771777],[21.430859,77.812109],[21.608398,77.916064],[21.653125,77.923535],[21.210449,78.005762],[21.035449,78.05918],[20.844922,78.165869],[20.786426,78.252148],[20.52832,78.325586],[20.560254,78.419385],[20.372754,78.412012],[20.22793,78.477832],[20.362695,78.514795],[21.046875,78.556738],[21.454785,78.597559],[21.608105,78.595703]]],[[[20.897852,80.249951],[20.998438,80.238818],[21.549219,80.24292],[21.654883,80.218457],[21.69668,80.15918],[21.780664,80.13877],[21.897754,80.132471],[22.190234,80.059717],[22.289746,80.049219],[22.376367,80.089648],[22.442676,80.190283],[22.446191,80.30835],[22.417871,80.365527],[22.450781,80.402246],[22.548828,80.416455],[22.67207,80.412646],[22.792578,80.433008],[22.896875,80.468994],[23.008008,80.473975],[23.251367,80.44668],[23.31543,80.425244],[23.250098,80.380859],[23.224609,80.317627],[23.114551,80.186963],[23.35332,80.178857],[23.687988,80.206543],[23.772949,80.244385],[23.95293,80.30459],[24.142969,80.295166],[24.234082,80.303125],[24.280176,80.329297],[24.297559,80.3604],[24.402637,80.355176],[24.54668,80.295166],[24.613672,80.28584],[24.736328,80.301318],[24.785938,80.300684],[24.907031,80.27666],[25.471289,80.233105],[25.666895,80.209766],[25.751172,80.188037],[25.836328,80.175146],[26.436719,80.175488],[26.86084,80.16001],[27.017188,80.125488],[27.14834,80.059229],[27.198633,79.906592],[27.079883,79.865381],[26.221094,79.677441],[26.005859,79.617041],[25.902051,79.561377],[25.726367,79.439746],[25.641211,79.403027],[25.239063,79.345068],[25.145117,79.338867],[24.842871,79.367236],[24.750586,79.3646],[24.383398,79.301611],[24.256836,79.263477],[24.13291,79.215479],[23.947754,79.194287],[23.758789,79.205615],[22.903711,79.230664],[22.78916,79.264355],[22.695703,79.329053],[22.865527,79.411865],[21.911426,79.381055],[20.861133,79.397852],[20.805566,79.409521],[20.76084,79.441504],[20.399512,79.463379],[20.128223,79.4896],[19.900195,79.533789],[19.674609,79.591162],[19.74668,79.617969],[19.821094,79.633643],[20.014844,79.640234],[20.187109,79.632275],[20.493457,79.632764],[20.564844,79.690527],[20.686816,79.707178],[20.784082,79.748584],[20.460742,79.774658],[20.123438,79.778564],[19.898633,79.744189],[19.638086,79.728613],[19.4,79.726562],[18.94209,79.736328],[18.725,79.760742],[18.428027,79.824512],[18.324707,79.859717],[18.284766,79.887354],[18.255371,79.929199],[18.594629,79.966699],[18.726465,79.99624],[18.855957,80.036621],[18.343848,80.05957],[18.129492,80.093408],[17.916895,80.143115],[18.089453,80.171143],[18.779297,80.193506],[18.961914,80.174805],[19.142969,80.138672],[19.343359,80.116406],[19.537109,80.163232],[19.354688,80.1854],[19.191406,80.263232],[19.156934,80.301855],[19.17832,80.331543],[19.26377,80.335986],[19.327441,80.323096],[19.568457,80.25],[19.751074,80.227197],[19.802246,80.294727],[19.810352,80.326807],[19.777148,80.353369],[19.691309,80.402344],[19.614355,80.462549],[19.733301,80.477832],[19.851172,80.471191],[20.104297,80.42998],[20.359375,80.400928],[20.475879,80.371631],[20.693457,80.298682],[20.897852,80.249951]]],[[[16.786719,79.906738],[16.838477,79.904785],[16.888965,79.91543],[16.925586,79.943457],[16.966406,79.958936],[17.219434,79.940771],[17.578223,79.884668],[17.684766,79.857031],[17.83457,79.800049],[17.956152,79.704248],[17.859766,79.63501],[17.732617,79.569531],[17.6875,79.53335],[17.733984,79.481348],[17.715039,79.430762],[17.66875,79.385937],[17.861035,79.437061],[18.27207,79.600586],[18.333301,79.610693],[18.397363,79.605176],[18.581445,79.571582],[18.748438,79.488184],[18.785254,79.460596],[18.815234,79.42666],[18.832422,79.384766],[18.822949,79.33667],[18.807422,79.303174],[18.72002,79.281494],[18.677832,79.261719],[18.772266,79.260254],[18.880078,79.234277],[18.979004,79.17915],[19.089453,79.157031],[19.490234,79.175684],[19.750879,79.146826],[19.893555,79.056201],[20.11377,79.076709],[20.114453,79.125],[20.162695,79.145654],[20.458203,79.129248],[20.611035,79.106641],[20.767188,79.059131],[20.500684,78.981396],[20.720313,78.906689],[21.089648,78.852637],[21.312207,78.79585],[21.352539,78.772021],[21.38877,78.74043],[21.243945,78.699414],[21.096289,78.67627],[20.724805,78.672314],[20.387012,78.643262],[19.76875,78.622705],[19.676758,78.60957],[19.65498,78.597852],[19.618555,78.562158],[19.380664,78.479785],[19.150488,78.379395],[19.055664,78.318945],[18.983789,78.234229],[18.957617,78.182471],[19.008691,78.132275],[18.995117,78.081494],[18.82207,78.041699],[18.712305,78.040088],[18.574609,78.047998],[18.439258,78.025049],[18.430664,77.990576],[18.438672,77.942041],[18.404004,77.793945],[18.361914,77.682275],[18.29873,77.578564],[18.22793,77.522607],[18.137402,77.507031],[17.84707,77.496777],[17.62334,77.399365],[17.44248,77.225244],[17.348633,77.156885],[17.152539,77.048926],[17.187891,77.010645],[17.249023,76.969189],[17.141992,76.894922],[16.97666,76.811621],[16.979883,76.779395],[17.035547,76.720361],[17.062695,76.658984],[16.935156,76.606152],[16.700488,76.579297],[16.461914,76.609326],[16.345801,76.644775],[16.238086,76.701514],[16.123828,76.738525],[16.004492,76.760742],[15.546777,76.886426],[15.124219,77.085107],[14.738477,77.162354],[14.486914,77.199023],[14.36582,77.234473],[14.247559,77.282129],[14.145313,77.335596],[14.050391,77.403223],[14.004199,77.445215],[13.995703,77.508203],[14.026074,77.545166],[14.071289,77.564111],[14.377637,77.579639],[14.487793,77.57085],[14.596289,77.537939],[14.69502,77.525049],[14.920801,77.688818],[16.205957,77.782471],[16.619141,77.798682],[17.033301,77.797705],[16.96875,77.841943],[16.914062,77.897998],[16.85293,77.911572],[16.539648,77.880225],[16.060059,77.847119],[15.826367,77.84707],[15.585352,77.869141],[15.344824,77.856982],[15.096875,77.809033],[14.846875,77.778662],[14.603906,77.766455],[14.089941,77.771387],[13.9625,77.79624],[13.791113,77.853809],[13.749609,77.883301],[13.71416,77.919434],[13.680566,78.028125],[13.717676,78.057617],[13.770117,78.074609],[13.824023,78.08501],[13.936914,78.085547],[14.047754,78.066846],[14.307227,78.005078],[14.248145,78.071387],[14.994727,78.151221],[15.341406,78.220947],[15.519434,78.232715],[15.698047,78.227588],[15.658691,78.264697],[15.657129,78.299023],[15.783887,78.327051],[15.875391,78.339111],[16.150293,78.352881],[16.776953,78.350439],[17.00293,78.369385],[17.171973,78.417139],[16.991797,78.400488],[16.81123,78.397266],[16.726562,78.407178],[16.535352,78.448877],[16.448633,78.503564],[16.696582,78.612891],[16.782617,78.663623],[16.530469,78.656299],[16.446289,78.638525],[16.15752,78.538135],[15.944043,78.493018],[15.680664,78.471338],[15.417383,78.473242],[15.359961,78.487549],[15.279395,78.554102],[15.254199,78.589062],[15.264941,78.608301],[15.34834,78.663135],[15.391602,78.721191],[15.38418,78.771191],[15.322754,78.781201],[15.225293,78.732324],[15.137305,78.664258],[15.016309,78.630127],[14.891797,78.639453],[14.838672,78.665576],[14.792383,78.705566],[14.743555,78.720947],[14.689258,78.720947],[14.577637,78.70498],[14.467188,78.675391],[14.505273,78.630518],[14.51543,78.580566],[14.467773,78.540918],[14.431836,78.49248],[14.545605,78.461963],[14.638281,78.4146],[14.499512,78.392383],[14.363281,78.359912],[14.238281,78.309863],[14.110449,78.270898],[13.907617,78.266748],[13.65498,78.245166],[13.150195,78.2375],[12.912793,78.301074],[12.869531,78.33125],[12.822168,78.351465],[12.664648,78.384766],[12.434766,78.482959],[12.25791,78.594678],[12.138281,78.605518],[11.961719,78.642383],[11.865527,78.674219],[11.773828,78.716406],[11.746289,78.76626],[11.755176,78.81167],[11.861035,78.831885],[11.611035,78.882959],[11.36543,78.950391],[11.456152,78.972998],[11.547559,78.982959],[12.274902,78.904492],[12.323438,78.914258],[12.40332,78.953223],[12.375,78.966357],[12.253125,78.975342],[12.087305,78.975098],[12.045801,78.983154],[11.981836,79.025293],[11.925684,79.077246],[11.901953,79.111865],[11.892773,79.152344],[12.016113,79.213086],[12.083984,79.267529],[11.97832,79.292676],[11.679297,79.291162],[11.579785,79.283496],[11.616406,79.205273],[11.521191,79.15127],[11.338867,79.109131],[11.208105,79.129639],[11.107227,79.232959],[10.975391,79.304883],[10.925781,79.350195],[10.888086,79.41543],[10.834375,79.462842],[10.737598,79.520166],[10.725,79.555518],[10.737012,79.581641],[10.810742,79.640918],[10.75459,79.690332],[10.68623,79.733594],[10.682129,79.758252],[10.746387,79.788672],[10.804004,79.798779],[10.865918,79.796582],[11.049609,79.760303],[11.150391,79.716992],[11.185254,79.720459],[11.250586,79.784863],[11.343652,79.799414],[11.702344,79.820605],[12.101758,79.737549],[12.205176,79.719092],[12.287793,79.713135],[12.245215,79.75],[12.219141,79.7979],[12.27998,79.815967],[12.602441,79.773242],[12.753516,79.775781],[13.10752,79.831738],[13.692871,79.860986],[13.91416,79.816943],[13.925684,79.793408],[13.921094,79.761719],[13.907031,79.752197],[13.777539,79.715283],[13.039258,79.685156],[12.555371,79.569482],[13.215137,79.588086],[13.333789,79.574805],[13.383594,79.480762],[13.431641,79.470898],[13.60127,79.457227],[13.716211,79.42915],[13.833691,79.375684],[13.957227,79.339648],[14.02959,79.344141],[14.055859,79.383105],[14.026367,79.429297],[14.011133,79.481934],[14.019824,79.538672],[14.039844,79.585645],[14.178418,79.618701],[14.379785,79.725977],[14.593652,79.79873],[14.831836,79.766406],[15.052344,79.675342],[15.25127,79.545459],[15.443945,79.406787],[15.660156,79.234863],[15.764063,79.174268],[15.858496,79.159912],[16.294531,78.981055],[16.34375,78.976123],[16.253516,79.112109],[16.027539,79.342383],[15.875098,79.519238],[15.840723,79.586865],[15.816113,79.681836],[15.825781,79.709033],[15.845117,79.733594],[15.955762,79.835107],[16.100195,79.884424],[16.056641,79.953955],[16.093848,80.007324],[16.245703,80.049463],[16.386621,80.052588],[16.524023,80.020508],[16.786719,79.906738]]],[[[11.250293,78.610693],[11.261719,78.541699],[11.424219,78.548584],[11.616309,78.475098],[11.825684,78.436084],[11.884863,78.409326],[11.929395,78.374902],[12.056152,78.305615],[12.116406,78.232568],[11.965039,78.224854],[11.756543,78.329004],[11.586523,78.388232],[11.372461,78.43877],[11.199219,78.44126],[11.121289,78.463281],[10.840625,78.644727],[10.788867,78.686523],[10.628418,78.753857],[10.557617,78.8375],[10.558203,78.90293],[10.772852,78.8875],[10.96084,78.846387],[11.123926,78.753369],[11.15293,78.724463],[11.078223,78.686035],[11.15498,78.640576],[11.250293,78.610693]]],[[[18.741602,80.300928],[18.525,80.245605],[18.162207,80.288184],[18.205566,80.331787],[18.291699,80.35835],[18.519336,80.34834],[18.741602,80.300928]]],[[[29.04707,78.912061],[29.34541,78.905762],[29.645117,78.921631],[29.69668,78.904736],[29.310547,78.8521],[28.881152,78.880078],[28.494531,78.887207],[28.037891,78.828711],[27.889063,78.852148],[28.120996,78.908447],[28.374023,78.927051],[28.414746,78.961426],[28.511133,78.967334],[28.845215,78.97085],[29.04707,78.912061]]]]}},{"type":"Feature","properties":{"name":"Germany"},"geometry":{"type":"MultiPolygon","coordinates":[[[[9.524023,47.524219],[9.35,47.598926],[9.182813,47.670703],[9.127539,47.670703],[8.881152,47.656396],[8.874023,47.662695],[8.831152,47.703613],[8.793066,47.716553],[8.770117,47.709912],[8.754785,47.698047],[8.72832,47.700049],[8.617871,47.766113],[8.572656,47.775635],[8.509863,47.766895],[8.435742,47.731348],[8.403418,47.687793],[8.413281,47.662695],[8.451758,47.651807],[8.552344,47.659131],[8.56709,47.651904],[8.570508,47.637793],[8.559473,47.624023],[8.477637,47.612695],[8.454004,47.596191],[8.430078,47.592139],[8.414746,47.5896],[8.327832,47.606934],[8.198242,47.606934],[8.09375,47.576172],[7.927051,47.563867],[7.698047,47.569873],[7.615625,47.592725],[7.56543,47.606543],[7.529395,47.673877],[7.538574,47.773633],[7.593262,47.905664],[7.608496,48.002588],[7.58418,48.064307],[7.616602,48.156787],[7.705664,48.280029],[7.765137,48.41001],[7.794824,48.546826],[7.837988,48.636035],[7.922754,48.698535],[8.124023,48.873291],[8.140332,48.886426],[8.134863,48.973584],[8.080664,48.985889],[8.00127,49.010937],[7.799219,49.041895],[7.610938,49.061768],[7.525488,49.086377],[7.450586,49.152197],[7.404199,49.153076],[7.313379,49.129541],[7.199902,49.113623],[7.117383,49.127539],[7.065723,49.124854],[7.036719,49.112695],[7.022168,49.123437],[7.001465,49.179883],[6.958301,49.194629],[6.891211,49.20752],[6.849512,49.201953],[6.820703,49.173926],[6.77627,49.15415],[6.735449,49.160596],[6.607617,49.290869],[6.574707,49.319678],[6.566309,49.346191],[6.534277,49.394678],[6.458105,49.442871],[6.382227,49.458154],[6.344336,49.452734],[6.348438,49.512695],[6.37832,49.599609],[6.406738,49.644971],[6.444629,49.682031],[6.484766,49.707812],[6.49375,49.754395],[6.487305,49.798486],[6.440918,49.805322],[6.324609,49.837891],[6.256055,49.872168],[6.204883,49.915137],[6.138184,49.974316],[6.109766,50.034375],[6.108301,50.094238],[6.116504,50.120996],[6.121289,50.139355],[6.175098,50.232666],[6.364453,50.316162],[6.343652,50.400244],[6.340918,50.451758],[6.294922,50.485498],[6.203027,50.499121],[6.178711,50.52251],[6.168457,50.545361],[6.235938,50.59668],[6.154492,50.637256],[6.119434,50.679248],[6.005957,50.732227],[5.993945,50.750439],[6.048438,50.904883],[6.006836,50.949951],[5.955078,50.972949],[5.894727,50.984229],[5.867188,51.005664],[5.85752,51.030127],[5.868359,51.045312],[5.939258,51.04082],[5.961035,51.056689],[6.12998,51.147412],[6.136914,51.164844],[6.113379,51.174707],[6.082422,51.17998],[6.074805,51.199023],[6.075879,51.224121],[6.166211,51.354834],[6.192871,51.410596],[6.198828,51.45],[6.193262,51.488916],[6.141602,51.550098],[6.091113,51.598926],[6.089355,51.637793],[6.052734,51.658252],[5.948535,51.762402],[5.94873,51.802686],[6.007617,51.833984],[6.089844,51.853955],[6.117188,51.87041],[6.166504,51.880762],[6.29707,51.850732],[6.355664,51.824658],[6.372168,51.830029],[6.425,51.858398],[6.517578,51.853955],[6.741797,51.910889],[6.775195,51.938281],[6.800391,51.967383],[6.802441,51.980176],[6.715625,52.036182],[6.712988,52.056885],[6.724512,52.080225],[6.749023,52.098682],[6.800391,52.11123],[6.855078,52.135791],[6.977246,52.205518],[7.019629,52.266016],[7.032617,52.331494],[7.035156,52.380225],[7.001855,52.418994],[6.968164,52.444092],[6.92207,52.440283],[6.83252,52.442285],[6.748828,52.464014],[6.70293,52.499219],[6.691602,52.530176],[6.712402,52.549658],[6.71875,52.573584],[6.705371,52.597656],[6.710742,52.617871],[6.748438,52.634082],[7.013184,52.633545],[7.033008,52.651367],[7.050879,52.744775],[7.11709,52.887012],[7.179492,52.966211],[7.189941,52.999512],[7.188965,53.187207],[7.197266,53.282275],[7.152051,53.326953],[7.05332,53.37583],[7.074316,53.477637],[7.107129,53.556982],[7.206445,53.654541],[7.285254,53.681348],[7.629199,53.697266],[8.009277,53.690723],[8.16709,53.543408],[8.108496,53.467676],[8.200781,53.432422],[8.245215,53.445312],[8.279004,53.511182],[8.301563,53.584131],[8.333887,53.606201],[8.451367,53.551709],[8.492676,53.514355],[8.495215,53.394238],[8.538477,53.556885],[8.50625,53.670752],[8.528418,53.781104],[8.575586,53.838477],[8.618945,53.875],[8.897754,53.835693],[9.205566,53.855957],[9.321973,53.813477],[9.585352,53.600488],[9.673145,53.565625],[9.783984,53.554639],[9.63125,53.600195],[9.312012,53.859131],[9.216406,53.891211],[9.069629,53.900928],[8.978125,53.926221],[8.92041,53.965332],[8.903516,54.000293],[8.906641,54.260791],[8.851562,54.299561],[8.780371,54.313037],[8.736035,54.295215],[8.644922,54.294971],[8.625781,54.353955],[8.648047,54.397656],[8.831152,54.427539],[8.951855,54.467578],[8.957227,54.53833],[8.880957,54.593945],[8.789648,54.695947],[8.682324,54.791846],[8.670313,54.903418],[8.670703,54.90332],[8.857227,54.901123],[8.90293,54.896924],[9.18584,54.844678],[9.25498,54.808008],[9.341992,54.806299],[9.49873,54.84043],[9.61582,54.85542],[9.66123,54.834375],[9.725,54.825537],[9.739746,54.825537],[9.745898,54.807178],[9.892285,54.780615],[9.953809,54.738281],[10.022168,54.673926],[10.028809,54.581299],[9.941309,54.514648],[9.868652,54.472461],[10.143457,54.488428],[10.170801,54.450195],[10.212402,54.408936],[10.360449,54.43833],[10.731543,54.31626],[10.955957,54.375684],[11.013379,54.37915],[11.064355,54.280518],[11.008594,54.181152],[10.810742,54.075146],[10.85459,54.009814],[10.917773,53.995312],[11.104297,54.00918],[11.399609,53.944629],[11.461133,53.964746],[11.700586,54.113525],[11.796289,54.145459],[12.111328,54.168311],[12.168652,54.225879],[12.296289,54.283789],[12.378516,54.347021],[12.575391,54.467383],[12.779102,54.445703],[12.898047,54.422656],[13.028613,54.411035],[13.147461,54.282715],[13.448047,54.140869],[13.724219,54.153223],[13.822266,54.019043],[13.865527,53.853369],[13.950391,53.801367],[14.025,53.767432],[14.25,53.731885],[14.258887,53.729639],[14.266113,53.707129],[14.279883,53.624756],[14.29873,53.556445],[14.414551,53.283496],[14.412305,53.216748],[14.410938,53.199023],[14.368555,53.105566],[14.293164,53.026758],[14.193652,52.982324],[14.138867,52.932861],[14.128613,52.878223],[14.253711,52.78252],[14.514063,52.645605],[14.619434,52.528516],[14.569727,52.431104],[14.55459,52.359668],[14.573926,52.31416],[14.615625,52.277637],[14.679883,52.25],[14.705371,52.207471],[14.692383,52.150049],[14.70459,52.110205],[14.752539,52.081836],[14.748145,52.070801],[14.724805,52.030859],[14.692969,51.958008],[14.674902,51.904834],[14.60166,51.832373],[14.623926,51.770801],[14.681348,51.698193],[14.724902,51.661719],[14.738672,51.627148],[14.710938,51.544922],[14.724707,51.523877],[14.905957,51.46333],[14.935547,51.435352],[14.953125,51.377148],[15.016602,51.252734],[14.963867,51.095117],[14.91748,51.00874],[14.814258,50.871631],[14.809375,50.858984],[14.797461,50.842334],[14.766504,50.818311],[14.72334,50.814697],[14.658203,50.832617],[14.613574,50.855566],[14.623828,50.914746],[14.595215,50.918604],[14.559668,50.954932],[14.545703,50.993945],[14.507324,51.009863],[14.367285,51.02627],[14.319727,51.037793],[14.283203,51.029492],[14.255859,51.001855],[14.27334,50.976904],[14.299414,50.952588],[14.377051,50.914062],[14.369043,50.89873],[14.201758,50.86123],[14.096484,50.822754],[13.998438,50.801123],[13.898535,50.761279],[13.701367,50.716504],[13.556738,50.704639],[13.526563,50.692822],[13.472559,50.616943],[13.436133,50.601074],[13.401172,50.609326],[13.374609,50.621729],[13.341016,50.611426],[13.306055,50.586328],[13.269531,50.576416],[13.237695,50.576758],[13.181152,50.510498],[13.016406,50.490381],[12.99707,50.456055],[12.966797,50.416211],[12.942676,50.406445],[12.868262,50.422217],[12.76543,50.430957],[12.706445,50.409131],[12.635547,50.39707],[12.549023,50.393408],[12.452637,50.349805],[12.358594,50.273242],[12.305664,50.205713],[12.277344,50.181445],[12.231152,50.244873],[12.174805,50.288379],[12.134863,50.310937],[12.099219,50.310986],[12.089844,50.301758],[12.089746,50.268555],[12.127832,50.213428],[12.175,50.17583],[12.18252,50.148047],[12.207813,50.09751],[12.276465,50.042334],[12.38418,49.998584],[12.457617,49.955518],[12.512012,49.895801],[12.5125,49.877441],[12.497559,49.853076],[12.471875,49.830078],[12.450195,49.800146],[12.390527,49.739648],[12.408203,49.713184],[12.457031,49.679785],[12.500293,49.639697],[12.555762,49.574854],[12.632031,49.46123],[12.681152,49.414502],[12.747852,49.366211],[12.813379,49.329346],[12.916699,49.330469],[13.02373,49.260107],[13.140527,49.15835],[13.227832,49.11167],[13.28877,49.097461],[13.339063,49.060791],[13.383691,49.008105],[13.401172,48.977588],[13.440723,48.955566],[13.547656,48.959668],[13.684961,48.876709],[13.769922,48.815967],[13.814746,48.766943],[13.80293,48.74751],[13.797461,48.686426],[13.798828,48.62168],[13.785352,48.587451],[13.723926,48.542383],[13.692188,48.532764],[13.675195,48.523047],[13.486621,48.581836],[13.47168,48.571826],[13.459863,48.564551],[13.409375,48.394141],[13.374609,48.361377],[13.322852,48.33125],[13.215234,48.301904],[13.14043,48.289941],[13.082129,48.275098],[12.897461,48.203711],[12.814258,48.16084],[12.760352,48.106982],[12.760059,48.075977],[12.849902,47.984814],[12.953516,47.890625],[12.954199,47.807764],[12.908301,47.745801],[12.897656,47.721875],[12.928125,47.712842],[12.985547,47.709424],[13.033594,47.69873],[13.054102,47.655127],[13.047949,47.57915],[13.031543,47.508008],[13.014355,47.478076],[12.968066,47.475684],[12.878906,47.506445],[12.809375,47.542187],[12.782813,47.56416],[12.781152,47.59043],[12.796191,47.607031],[12.771387,47.639404],[12.68584,47.669336],[12.594238,47.656299],[12.526563,47.636133],[12.48291,47.637305],[12.435742,47.666113],[12.363184,47.688184],[12.268359,47.702734],[12.209277,47.718262],[12.196875,47.709082],[12.203809,47.646729],[12.185645,47.619531],[11.716797,47.583496],[11.573926,47.549756],[11.469922,47.506104],[11.392969,47.487158],[11.374121,47.460254],[11.297949,47.424902],[11.211914,47.413623],[11.191211,47.425195],[11.136035,47.408887],[11.041992,47.393115],[10.980859,47.398145],[10.952148,47.426709],[10.893945,47.470459],[10.870605,47.500781],[10.873047,47.520215],[10.741602,47.524121],[10.658691,47.547217],[10.482813,47.541797],[10.439453,47.551562],[10.430371,47.541064],[10.403906,47.416992],[10.369141,47.366064],[10.312793,47.313428],[10.240625,47.284131],[10.183008,47.278809],[10.185742,47.317187],[10.200293,47.363428],[10.158789,47.374268],[10.096484,47.37959],[10.066309,47.393359],[10.074219,47.428516],[10.059863,47.449072],[10.034082,47.473584],[9.971582,47.505322],[9.83916,47.552295],[9.748926,47.575537],[9.715137,47.550781],[9.650586,47.525879],[9.548926,47.534033],[9.524023,47.524219]]],[[[13.70918,54.382715],[13.73418,54.31543],[13.707324,54.281152],[13.594922,54.338184],[13.482031,54.337402],[13.414551,54.249561],[13.364355,54.24585],[13.190039,54.325635],[13.162109,54.364551],[13.156348,54.396924],[13.18125,54.508984],[13.17666,54.544238],[13.231445,54.582764],[13.239941,54.638428],[13.336816,54.697119],[13.422754,54.699316],[13.450098,54.649609],[13.491211,54.615381],[13.636035,54.577002],[13.657617,54.55957],[13.670703,54.535449],[13.60332,54.488184],[13.580469,54.463965],[13.601855,54.425146],[13.70918,54.382715]]],[[[14.211426,53.950342],[14.198242,53.919043],[14.213672,53.870752],[14.172168,53.874365],[14.04834,53.863086],[13.925781,53.879053],[13.902148,53.938965],[13.92168,53.996631],[13.872461,54.036279],[13.827148,54.05957],[13.82041,54.092822],[13.827734,54.127246],[14.038867,54.03457],[14.211426,53.950342]]],[[[11.282813,54.417969],[11.129297,54.416016],[11.070703,54.456006],[11.011719,54.466162],[11.043457,54.515479],[11.084961,54.533398],[11.233594,54.50127],[11.280273,54.438379],[11.282813,54.417969]]],[[[8.307715,54.786963],[8.284668,54.76709],[8.295703,54.908301],[8.405176,55.05874],[8.451465,55.055371],[8.404102,55.014746],[8.39043,54.986279],[8.371191,54.929395],[8.379883,54.899854],[8.62959,54.891748],[8.600586,54.865381],[8.347363,54.847607],[8.307715,54.786963]]],[[[8.587891,54.712695],[8.548926,54.688184],[8.453809,54.691064],[8.400391,54.714111],[8.417676,54.738672],[8.468164,54.757422],[8.509961,54.760303],[8.573438,54.74873],[8.587891,54.712695]]]]}}]}